[{"OBJECT_NAME":"STARLINK-3572","OBJECT_ID":"2022-022AD","EPOCH":"2026-03-09T23:30:41.974272","MEAN_MOTION":15.08824831,"ECCENTRICITY":0.00015475,"INCLINATION":53.2199,"RA_OF_ASC_NODE":357.8184,"ARG_OF_PERICENTER":90.5222,"MEAN_ANOMALY":269.5948,"EPHEMERIS_TYPE":0,"CLASSIFICATION_TYPE":"U","NORAD_CAT_ID":51879,"ELEMENT_SET_NO":999,"REV_AT_EPOCH":22329,"BSTAR":0.00011589753,"MEAN_MOTION_DOT":1.556e-5,"MEAN_MOTION_DDOT":0},{"OBJECT_NAME":"SEDNA-2","OBJECT_ID":"2025-009DQ","EPOCH":"2026-03-09T19:10:28.282944","MEAN_MOTION":15.10492622,"ECCENTRICITY":0.0010309,"INCLINATION":97.4615,"RA_OF_ASC_NODE":144.8075,"ARG_OF_PERICENTER":53.026,"MEAN_ANOMALY":307.1912,"EPHEMERIS_TYPE":0,"CLASSIFICATION_TYPE":"U","NORAD_CAT_ID":63153,"ELEMENT_SET_NO":999,"REV_AT_EPOCH":6311,"BSTAR":0.00049393403,"MEAN_MOTION_DOT":8.085e-5,"MEAN_MOTION_DDOT":0}]
